NORAD_CAT_ID,OBJECT_NAME,OBJECT_TYPE,EPOCH,MEAN_MOTION,ECCENTRICITY,INCLINATION,RA_OF_ASC_NODE,ARG_OF_PERICENTER,MEAN_ANOMALY,BSTAR,MEAN_MOTION_DOT,MEAN_MOTION_DDOT,TLE_LINE0,TLE_LINE1,TLE_LINE2,SEMIMAJOR_AXIS,PERIOD,APOGEE,PERIGEE,DECAYED
54064.0,STARLINK-5172,PAYLOAD,2022-10-25 16:00:00,15.90603747,0.0031134,53.2173,123.253,56.099,178.0593,-0.0041677,-0.01374724,0.00053841,0 STARLINK-5172,1 54064U 22136P   22298.66667824 -.01374724  53841-3 -41677-2 0  9992,2 54064  53.2173 123.2530 0031134  56.0990 178.0593 15.90603747  1308,6678.729,90.532,321.388,279.801,0.0
54064.0,STARLINK-5172,PAYLOAD,2022-10-25 22:00:01,15.89934385,0.0028528,53.2173,121.9857,57.3675,168.9295,-0.0042434,-0.01342692,0.0005125,0 STARLINK-5172,1 54064U 22136P   22298.91668981 -.01342692  51250-3 -42434-2 0  9998,2 54064  53.2173 121.9857 0028528  57.3675 168.9295 15.89934385  1302,6680.604,90.57,321.527,283.41,0.0
54064.0,STARLINK-5172,PAYLOAD,2022-10-26 06:00:00,15.89071101,0.002544,53.2174,120.2943,57.2676,277.4681,-0.0044802,-0.013461,0.00051071,0 STARLINK-5172,1 54064U 22136P   22299.25001157 -.01346100  51071-3 -44802-2 0  9992,2 54064  53.2174 120.2943 0025440  57.2676 277.4681 15.89071101  1393,6683.023,90.619,321.89,287.886,0.0
54064.0,STARLINK-5172,PAYLOAD,2022-10-26 14:00:01,15.88174532,0.0022029,53.2173,118.6062,56.4657,25.7453,-0.0045175,-0.01288568,0.00046773,0 STARLINK-5172,1 54064U 22136P   22299.58334491 -.01288568  46773-3 -45175-2 0  9998,2 54064  53.2173 118.6062 0022029  56.4657  25.7453 15.88174532  1308,6685.538000000001,90.67,322.13,292.675,0.0
54064.0,STARLINK-5172,PAYLOAD,2022-10-26 22:00:00,15.87333865,0.0018555,53.2176,116.923,54.5067,134.1143,-0.0049447,-0.01343622,0.00050089,0 STARLINK-5172,1 54064U 22136P   22299.91667824 -.01343622  50089-3 -49447-2 0  9998,2 54064  53.2176 116.9230 0018555  54.5067 134.1143 15.87333865  1498,6687.898,90.718,322.173,297.3540000000001,0.0
54064.0,STARLINK-5172,PAYLOAD,2022-10-27 14:00:01,15.85574911,0.0012545,53.2169,113.5561,55.0687,343.3428,-0.0052587,-0.01150807,0.0,0 STARLINK-5172,1 54064U 22136P   22300.58335648 -.01150807  00000-0 -52587-2 0  9995,2 54064  53.2169 113.5561 0012545  55.0687 343.3428 15.85574911  1304,6692.843000000003,90.819,323.105,306.312,0.0
54064.0,STARLINK-5172,PAYLOAD,2022-10-27 22:00:00,15.84715183,0.0009103999999999,53.2173,111.8796,49.6452,91.9863,-0.0055465,-0.0115737,0.0,0 STARLINK-5172,1 54064U 22136P   22300.91667824 -.01157370  00000-0 -55465-2 0  9996,2 54064  53.2173 111.8796 0009104  49.6452  91.9863 15.84715183  1302,6695.264,90.868,323.224,311.033,0.0
54064.0,STARLINK-5172,PAYLOAD,2022-10-28 08:00:01,15.83644679,0.0005507,53.2174,109.7815,38.7999,320.5422,-0.0059862,-0.01201162,0.0,0 STARLINK-5172,1 54064U 22136P   22301.33335648 -.01201162  00000-0 -59862-2 0  9993,2 54064  53.2174 109.7815 0005507  38.7999 320.5422 15.83644679  1727,6698.281,90.929,323.834,316.457,0.0
54064.0,STARLINK-5172,PAYLOAD,2022-10-28 14:00:01,15.82971021,0.0003026,53.2173,108.5259,17.7594,327.4004,-0.0060171999999999,-0.01170593,0.0,0 STARLINK-5172,1 54064U 22136P   22301.58335648 -.01170593  00000-0 -60172-2 0  9999,2 54064  53.2173 108.5259 0003026  17.7594 327.4004 15.82971021  1306,6700.181,90.968,324.073,320.018,0.0
54064.0,STARLINK-5172,PAYLOAD,2022-10-28 22:00:01,15.82079844,0.000272,53.2171,106.8554,309.7857,135.5438,-0.0060364,-0.01130179,0.0,0 STARLINK-5172,1 54064U 22136P   22301.91668981 -.01130179  00000-0 -60364-2 0  9994,2 54064  53.2171 106.8554 0002720 309.7857 135.5438 15.82079844  1300,6702.696999999999,91.019,326.385,322.7390000000001,0.0
54064.0,STARLINK-5172,PAYLOAD,2022-10-29 12:00:00,15.80495844,0.0001568,53.2169,103.931,329.2845,198.7959,-0.0060438,-0.0103997,0.0,0 STARLINK-5172,1 54064U 22136P   22302.50001157 -.01039970  00000-0 -60438-2 0  9995,2 54064  53.2169 103.9310 0001568 329.2845 198.7959 15.80495844  1307,6707.174,91.111,330.091,327.98800000000006,0.0
54064.0,STARLINK-5172,PAYLOAD,2022-10-29 22:00:01,15.7951815,0.0006277,53.2172,101.8506,272.6373,106.9052,-0.0072063,-0.01192817,0.0,0 STARLINK-5172,1 54064U 22136P   22302.91668981 -.01192817  00000-0 -72063-2 0  9991,2 54064  53.2172 101.8506 0006277 272.6373 106.9052 15.79518150  1303,6709.941999999999,91.167,336.019,327.595,0.0
54064.0,STARLINK-5172,PAYLOAD,2022-10-30 00:00:00,15.79306122,0.000655,53.2172,101.4341,272.1084,221.4626,-0.0073373,-0.01201877,0.0,0 STARLINK-5172,1 54064U 22136P   22303.00001157 -.01201877  00000-0 -73373-2 0  9990,2 54064  53.2172 101.4341 0006550 272.1084 221.4626 15.79306122  1982,6710.542,91.179,336.80300000000005,328.01199999999994,0.0
54064.0,STARLINK-5172,PAYLOAD,2022-10-30 14:00:01,15.77769589,0.0001626999999999,53.2173,98.5234,36.1076,174.3142,-0.0076821,-0.01172888,0.0,0 STARLINK-5172,1 54064U 22136P   22303.58334491 -.01172888  00000-0 -76821-2 0  9993,2 54064  53.2173  98.5234 0001627  36.1076 174.3142 15.77769589  1302,6714.899,91.268,337.856,335.671,0.0
54064.0,STARLINK-5172,PAYLOAD,2022-10-30 22:00:01,15.76903191,0.0001426,53.2171,96.8653,34.3683,270.0216,-0.0079937,-0.01173587,0.0,0 STARLINK-5172,1 54064U 22136P   22303.91668981 -.01173587  00000-0 -79937-2 0  9992,2 54064  53.2171  96.8653 0001426  34.3683 270.0216 15.76903191  1301,6717.358,91.318,340.181,338.265,0.0
54064.0,STARLINK-5172,PAYLOAD,2022-10-31 14:00:01,15.75137685,0.0001769,53.2172,93.5508,36.1439,92.8754,-0.0083136,-0.01133429,0.0,0 STARLINK-5172,1 54064U 22136P   22304.58334491 -.01133429  00000-0 -83136-2 0  9999,2 54064  53.2172  93.5508 0001769  36.1439  92.8754 15.75137685  1307,6722.376,91.421,345.431,343.052,0.0
54064.0,STARLINK-5172,PAYLOAD,2022-10-31 22:00:01,15.74156709,0.0001862,53.217,91.8987,37.2478,182.6399,-0.0066210999999999,-0.00874256,0.0,0 STARLINK-5172,1 54064U 22136P   22304.91668981 -.00874256  00000-0 -66211-2 0  9994,2 54064  53.2170  91.8987 0001862  37.2478 182.6399 15.74156709  1306,6725.169,91.478,348.286,345.782,0.0
54064.0,STARLINK-5172,PAYLOAD,2022-11-01 06:00:00,15.73367169,0.0001817,53.2174,90.2458,38.2636,271.2725,-0.0017437999999999,-0.00240232,0.0,0 STARLINK-5172,1 54064U 22136P   22305.25001157 -.00240232  00000-0 -17438-2 0  9996,2 54064  53.2174  90.2458 0001817  38.2636 271.2725 15.73367169  2349,6727.419,91.523,350.506,348.061,0.0
54064.0,STARLINK-5172,PAYLOAD,2022-11-01 14:00:01,15.73316455,0.0001655,53.2169,88.5966,33.0693,5.3997,-0.00086902,-0.00121446,0.0,0 STARLINK-5172,1 54064U 22136P   22305.58334491 -.00121446  00000-0 -86902-3 0  9990,2 54064  53.2169  88.5966 0001655  33.0693   5.3997 15.73316455  2397,6727.563,91.526,350.542,348.315,0.0
54064.0,STARLINK-5172,PAYLOAD,2022-11-01 22:00:00,15.73205015,0.0001989,53.2143,86.9476,34.4021,93.0124,0.00072003,0.00101688,0.0,0 STARLINK-5172,1 54064U 22136P   22305.91667824  .00101688  00000-0  72003-3 0  9997,2 54064  53.2143  86.9476 0001989  34.4021  93.0124 15.73205015  1302,6727.880999999999,91.533,351.084,348.408,0.0
54064.0,STARLINK-5172,PAYLOAD,2022-11-02 06:00:00,15.73269606,0.0001745,53.2145,85.2958,34.9123,181.4841,-6.6015e-05,-9.903e-05,0.0,0 STARLINK-5172,1 54064U 22136P   22306.25001157 -.00009903  00000-0 -66015-4 0  9992,2 54064  53.2145  85.2958 0001745  34.9123 181.4841 15.73269606  2506,6727.696999999999,91.529,350.736,348.38800000000015,0.0
54064.0,STARLINK-5172,PAYLOAD,2022-11-02 14:00:01,15.73303361,0.0001854,53.2156,83.6477,30.9705,274.4285,-0.0013054,-0.00180758,0.0,0 STARLINK-5172,1 54064U 22136P   22306.58334491 -.00180758  00000-0 -13054-2 0  9999,2 54064  53.2156  83.6477 0001854  30.9705 274.4285 15.73303361  1308,6727.601,91.527,350.713,348.218,0.0
54064.0,STARLINK-5172,PAYLOAD,2022-11-02 22:00:00,15.73131352,0.0002032,53.2145,81.9982,20.7017,13.6451,0.00064944,0.00091254,0.0,0 STARLINK-5172,1 54064U 22136P   22306.91667824  .00091254  00000-0  64944-3 0  9990,2 54064  53.2145  81.9982 0002032  20.7017  13.6451 15.73131352  2601,6728.090999999999,91.537,351.3230000000001,348.589,0.0
54064.0,STARLINK-5172,PAYLOAD,2022-11-03 14:00:01,15.73288628,0.0002108,53.2144,78.6987,25.7248,186.4432,-0.0004479,-0.00063255,0.0,0 STARLINK-5172,1 54064U 22136P   22307.58334491 -.00063255  00000-0 -44790-3 0  9994,2 54064  53.2144  78.6987 0002108  25.7248 186.4432 15.73288628  1306,6727.643,91.528,350.926,348.089,0.0
54064.0,STARLINK-5172,PAYLOAD,2022-11-03 22:00:00,15.73299543,0.0002213,53.214,77.0492,21.4088,279.7665,-0.00024859,-0.00035516,0.0,0 STARLINK-5172,1 54064U 22136P   22307.91667824 -.00035516  00000-0 -24859-3 0  9993,2 54064  53.2140  77.0492 0002213  21.4088 279.7665 15.73299543  2761,6727.611,91.527,350.965,347.98800000000006,0.0
54064.0,STARLINK-5172,PAYLOAD,2022-11-04 14:00:01,15.73240766,0.0002236,53.2147,73.7497,17.4015,101.8086,-0.00026296,-0.00037431,0.0,0 STARLINK-5172,1 54064U 22136P   22308.58334491 -.00037431  00000-0 -26296-3 0  9993,2 54064  53.2147  73.7497 0002236  17.4015 101.8086 15.73240766  1300,6727.779,91.531,351.148,348.14,0.0
54064.0,STARLINK-5172,PAYLOAD,2022-11-04 22:00:01,15.73198428,0.0002367,53.2145,72.0998,17.4072,190.7306,-0.00053738,-0.00075373,0.0,0 STARLINK-5172,1 54064U 22136P   22308.91668981 -.00075373  00000-0 -53738-3 0  9992,2 54064  53.2145  72.0998 0002367  17.4072 190.7306 15.73198428  2922,6727.9,91.533,351.357,348.172,0.0
54064.0,STARLINK-5172,PAYLOAD,2022-11-05 14:00:01,15.73088981,0.0002546,53.2145,68.801,23.4523,2.3997,0.0003511,0.00048711,0.0,0 STARLINK-5172,1 54064U 22136P   22309.58335648  .00048711  00000-0  35110-3 0  9995,2 54064  53.2145  68.8010 0002546  23.4523   2.3997 15.73088981  1304,6728.212,91.54,351.79,348.36400000000015,0.0
54064.0,STARLINK-5172,PAYLOAD,2022-11-05 22:00:01,15.73148765,0.0002648999999999,53.2143,67.1516,22.2915,92.3731,0.00045914,0.00064176,0.0,0 STARLINK-5172,1 54064U 22136P   22309.91668981  .00064176  00000-0  45914-3 0  9997,2 54064  53.2143  67.1516 0002649  22.2915  92.3731 15.73148765  3079,6728.041,91.536,351.689,348.124,0.0
